SES-8                   
1 39460U 13071A   22252.32725490 -.00000292  00000+0  00000+0 0  9991
2 39460   0.0410 253.7567 0002439 241.9543  65.4561  1.00272652 30623
INMARSAT 5-F1           
1 39476U 13073A   22252.46433389  .00000006  00000+0  00000+0 0  9990
2 39476   0.0279 150.2979 0000479 107.7859 320.1792  1.00270079 31788
TKSAT-1 (TUPAC KATARI)  
1 39481U 13075A   22252.47789363 -.00000217  00000+0  00000+0 0  9990
2 39481   0.0350  91.1794 0002588  60.0630 282.1105  1.00271872 31780
EXPRESS-AM5             
1 39487U 13077A   22252.11220975 -.00000312  00000+0  10000-3 0  9999
2 39487   0.0472 303.9481 0003488 239.9688 344.4464  1.00215414 32532
GSAT-14                 
1 39498U 14001A   22252.46660111 -.00000100  00000+0  00000+0 0  9997
2 39498   0.0632 277.4203 0004965 302.0092  11.0443  1.00271103 31597
THAICOM 6               
1 39500U 14002A   22252.46747310 -.00000144  00000+0  00000+0 0  9997
2 39500   0.0416 125.9524 0004810  46.1024  63.2448  1.00273408 31655
TDRS 12                 
1 39504U 14004A   22252.44366740 -.00000289  00000+0  00000+0 0  9995
2 39504   3.7926 348.7581 0003802 157.5999 320.9570  1.00269099 30470
ABS-2                   
1 39508U 14006A   22252.46677550 -.00000108  00000+0  00000+0 0  9997
2 39508   0.0546 315.6749 0002060 213.9683  61.7865  1.00271762 31482
ATHENA-FIDUS            
1 39509U 14006B   22252.45936347  .00000132  00000+0  00000+0 0  9995
2 39509   0.0198 225.3984 0001669 318.2024   8.0435  1.00272464 31270
TURKSAT 4A              
1 39522U 14007A   22252.24493774  .00000124  00000+0  00000+0 0  9991
2 39522   0.0591 266.0219 0003625 308.4063 263.9982  1.00271535 31180
EXPRESS-AT1             
1 39612U 14010A   22251.45853852  .00000057  00000+0  00000+0 0  9999
2 39612   0.0369 300.9354 0000313 298.7487 328.8914  1.00272832 31236
EXPRESS-AT2             
1 39613U 14010B   22252.47968115 -.00000304  00000+0  00000+0 0  9998
2 39613   0.0435 303.9056 0000603  11.6596 345.4596  1.00270881 30713
AMAZONAS 4A             
1 39616U 14011A   22252.48545663 -.00000274  00000+0  00000+0 0  9998
2 39616   0.0438 283.0415 0003697 248.2019 278.0718  1.00269813 30899
ASTRA 5B                
1 39617U 14011B   22252.24284493  .00000132  00000+0  00000+0 0  9996
2 39617   0.0515 356.5695 0004051 174.7611 295.8387  1.00271465 30860
IRNSS-1B                
1 39635U 14017A   22252.10419634  .00000097  00000+0  00000+0 0  9994
2 39635  29.0009 263.6999 0021404 193.0619 343.9239  1.00271279 30984
LUCH 5V                 
1 39727U 14023A   22252.47069951 -.00000289  00000+0  00000+0 0  9990
2 39727   1.6923  76.3758 0003612 108.6783  67.5749  1.00267735 30554
KAZSAT-3                
1 39728U 14023B   22252.46346189  .00000038  00000+0  00000+0 0  9992
2 39728   0.0136 132.9522 0000410  60.5498  20.3037  1.00274070 28648
EUTELSAT 3B             
1 39773U 14030A   22252.30894281 -.00000002  00000+0  00000+0 0  9996
2 39773   0.0643 351.3021 0005252 187.8251 283.5220  1.00270355 30261
ASIASAT 8 (AMOS-7)      
1 40107U 14046A   22252.30754760 -.00000055  00000+0  00000+0 0  9991
2 40107   0.0352 278.0332 0002217 234.8862 302.2542  1.00272586 88335
ASIASAT 6               
1 40141U 14052A   22252.54752304 -.00000385  00000+0  00000+0 0  9990
2 40141   0.0394 281.9310 0000886 237.2372 146.4001  1.00268958 29354
OPTUS 10                
1 40146U 14054A   22252.41122885 -.00000169  00000+0  00000+0 0  9998
2 40146   0.0423 156.3819 0004405  15.5585 120.5331  1.00271208 29222
MEASAT-3B               
1 40147U 14054B   22252.47008911 -.00000264  00000+0  00000+0 0  9994
2 40147   0.0414  39.9351 0001155 123.2146  86.0523  1.00269762 29107
LUCH (OLYMP)            
1 40258U 14058A   22252.36675005 -.00000164  00000+0  00000+0 0  9992
2 40258   0.0472 281.1201 0001647 230.8393 310.3523  1.00270337 27183
HIMAWARI-8              
1 40267U 14060A   22252.47985556 -.00000298  00000+0  00000+0 0  9990
2 40267   0.0258 215.7414 0001123 310.5205 135.6239  1.00273649 28958
IRNSS-1C                
1 40269U 14061A   22252.46851951 -.00000185  00000+0  00000+0 0  9998
2 40269   3.1357 125.3668 0020233   5.9325 109.0655  1.00271698 28883
INTELSAT 30 (IS-30)     
1 40271U 14062A   22252.34930539 -.00000171  00000+0  00000+0 0  9994
2 40271   0.0227 169.2025 0002028 262.3854 307.4792  1.00260851 28773
ARSAT 1                 
1 40272U 14062B   22252.42406132 -.00000282  00000+0  00000+0 0  9994
2 40272   0.0319  85.4311 0001772  78.5829 265.2819  1.00272688 28803
EXPRESS-AM6             
1 40277U 14064A   22251.37410700  .00000082  00000+0  00000+0 0  9997
2 40277   0.0361 250.8812 0004664 239.4595  44.6485  1.00239912 28856
GSAT-16                 
1 40332U 14078A   22252.46285149  .00000063  00000+0  00000+0 0  9991
2 40332   0.0670 274.0370 0005911 199.9468  96.1712  1.00271228 28304
DIRECTV 14              
1 40333U 14078B   22252.31341237 -.00000147  00000+0  00000+0 0  9991
2 40333   0.0203 106.4546 0000220  89.6764 165.8085  1.00271869 28254
YAMAL 401               
1 40345U 14082A   22252.46974031 -.00000250  00000+0  00000+0 0  9994
2 40345   0.0255 144.5146 0001544 114.8208 348.1911  1.00268957 28110
ASTRA 2G                
1 40364U 14089A   22252.31365163  .00000127  00000+0  00000+0 0  9998
2 40364   0.0365 341.6497 0002813 116.5767  31.1981  1.00271993 28166
FENGYUN 2G              
1 40367U 14090A   22252.47165872 -.00000323  00000+0  00000+0 0  9994
2 40367   2.1417  88.6234 0002073 204.0586 324.8463  1.00282141 28194
MUOS-3                  
1 40374U 15002A   22252.55264745 -.00000149  00000+0  00000+0 0  9990
2 40374   2.5862  15.8210 0058812 178.0695 338.1567  1.00271422 27786
INMARSAT 5-F2           
1 40384U 15005A   22252.33665497 -.00000307  00000+0  00000+0 0  9995
2 40384   0.0272 151.2730 0000154 312.1107 311.1872  1.00267849 27173
ABS-3A                  
1 40424U 15010A   22252.30772201 -.00000049  00000+0  00000+0 0  9998
2 40424   0.0179 127.5239 0002276 310.7276  17.8437  1.00271519 27572
EUTELSAT 115 WEST B     
1 40425U 15010B   22252.36473046 -.00000047  00000+0  00000+0 0  9998
2 40425   0.0319  23.4567 0000518 258.6537  82.6774  1.00272302 27591
EXPRESS-AM7             
1 40505U 15012A   22252.45979947  .00000128  00000+0  00000+0 0  9999
2 40505   0.0229 168.5206 0002829   7.3269  18.1697  1.00267691 27200
IRNSS-1D                
1 40547U 15018A   22252.47392594 -.00000288  00000+0  00000+0 0  9998
2 40547  28.8058 263.7282 0020231 193.1292 173.9759  1.00268433 27195
BEIDOU 17               
1 40549U 15019A   22252.02511145 -.00000163  00000+0  00000+0 0  9999
2 40549  51.7412 311.7878 0038670 197.1570 303.9371  1.00279637 27272
THOR 7                  
1 40613U 15022A   22252.23647931 -.00000031  00000+0  00000+0 0  9995
2 40613   0.0104 148.1348 0002667  15.2720 269.3252  1.00271432 27006
TURKMENALEM52E/MONACOSAT
1 40617U 15023A   22252.17526465  .00000082  00000+0  00000+0 0  9996
2 40617   0.0070 145.9878 0002679  25.7788 291.5551  1.00269036 27037
DIRECTV 15              
1 40663U 15026A   22252.31122220 -.00000125  00000+0  00000+0 0  9996
2 40663   0.0189 113.2241 0000213 298.5482 305.7300  1.00273880 26653
SKY MEXICO-1            
1 40664U 15026B   22252.44491389 -.00000256  00000+0  00000+0 0  9991
2 40664   0.0189 108.4809 0002226  77.4065 243.9834  1.00272726 26649
METEOSAT-11 (MSG-4)     
1 40732U 15034A   22252.30824521 -.00000029  00000+0  00000+0 0  9997
2 40732   0.4644  71.0577 0000919  46.8779 340.9279  1.00271849 26221
STAR ONE C4             
1 40733U 15034B   22252.48697049 -.00000287  00000+0  00000+0 0  9996
2 40733   0.0401  11.8966 0001498 187.6466 254.2787  1.00271901 26223
WGS F7 (USA 263)        
1 40746U 15036A   22252.34321256 -.00000005  00000+0  00000+0 0  9999
2 40746   0.0175 166.1887 0000508 353.1342 127.5851  1.00271862 26067
INTELSAT 34 (IS-34)     
1 40874U 15039A   22252.44078978 -.00000307  00000+0  00000+0 0  9990
2 40874   0.0452 308.5736 0000487 120.6242  22.4574  1.00270921 25816
EUTELSAT 8 WEST B       
1 40875U 15039B   22252.23499690 -.00000088  00000+0  00000+0 0  9992
2 40875   0.0664 350.3020 0003723 138.7229 295.8350  1.00271331 25830
GSAT-6                  
1 40880U 15041A   22252.46834510 -.00000183  00000+0  00000+0 0  9996
2 40880   0.0520 275.3361 0004166 257.9904  66.3186  1.00271880 25799
INMARSAT 5-F3           
1 40882U 15042A   22252.41593767  .00000028  00000+0  00000+0 0  9997
2 40882   0.0283 151.8923 0000706 337.3495 188.5277  1.00273190 25753
MUOS-4                  
1 40887U 15044A   22252.46668830 -.00000114  00000+0  00000+0 0  9990
2 40887   2.5644  10.9636 0050374 358.1498 222.4150  1.00271186 25753
TJS-1                   
1 40892U 15046A   22252.45019622 -.00000179  00000+0  00000+0 0  9997
2 40892   0.1040 288.6406 0005331  77.6626 299.1990  1.00270047 25759
EXPRESS-AM8             
1 40895U 15048A   22252.30554200 -.00000134  00000+0  00000+0 0  9993
2 40895   0.0349 290.0489 0000146 346.8066 167.4660  1.00271311 25575
BEIDOU 20               
1 40938U 15053A   22252.47035056 -.00000105  00000+0  00000+0 0  9996
2 40938  51.3712 274.9046 0046325 199.8950 139.6346  1.00273538 25545
SKY MUSTER 1 (NBN1A)    
1 40940U 15054A   22252.47976834 -.00000301  00000+0  00000+0 0  9996
2 40940   0.0161 225.4283 0001876 297.1068 138.9257  1.00271590 25454
ARSAT 2                 
1 40941U 15054B   22252.38320435 -.00000246  00000+0  00000+0 0  9995
2 40941   0.0302  88.8101 0001918  69.3596 247.1796  1.00270027 25516
MORELOS 3               
1 40946U 15056A   22252.36555463 -.00000064  00000+0  00000+0 0  9999
2 40946   3.6147 336.1775 0003290 180.6104 210.0828  1.00271856 25482
APSTAR 9                
1 40982U 15059A   22252.55188307 -.00000288  00000+0  00000+0 0  9990
2 40982   0.0377 241.9481 0002716 299.0500 148.2515  1.00273555 25328
